IRIDIUM 155             
1 43573U 18061E   22004.55114028  .00000096  00000+0  27236-4 0  9990
2 43573  86.3964  15.6454 0001734  92.2664 267.8730 14.34215198180492
IRIDIUM 154             
1 43574U 18061F   22004.95071525  .00000093  00000+0  26013-4 0  9998
2 43574  86.3967  15.5341 0002377  86.1750 273.9718 14.34220188180604
IRIDIUM 163             
1 43575U 18061G   22004.58285909  .00000094  00000+0  26642-4 0  9990
2 43575  86.3964  15.6529 0002463  99.1739 260.9735 14.34216804180524
IRIDIUM 156             
1 43576U 18061H   22004.55747687  .00000087  00000+0  24086-4 0  9996
2 43576  86.3965  15.6688 0002044  98.6956 261.4471 14.34214182180500
IRIDIUM 164             
1 43577U 18061J   22004.53846201  .00000098  00000+0  28055-4 0  9999
2 43577  86.3966  15.6922 0002406  89.9978 270.1493 14.34217344180551
IRIDIUM 159             
1 43578U 18061K   22004.50674674  .00000099  00000+0  28119-4 0  9992
2 43578  86.3964  15.6765 0002330  88.1907 271.9555 14.34217669180518
IRIDIUM 180             
1 43922U 19002A   22004.92485366  .00000095  00000+0  26739-4 0  9997
2 43922  86.3975 312.3708 0002960  83.4037 276.7496 14.34214347156181
IRIDIUM 176             
1 43923U 19002B   22004.93464885  .00000241  00000+0  34255-4 0  9997
2 43923  86.6109 312.4015 0002266  82.2746 277.8729 14.72267869160274
IRIDIUM 168             
1 43924U 19002C   22004.84873900  .00000100  00000+0  28719-4 0  9992
2 43924  86.3977 312.4341 0002379  80.7960 279.3505 14.34214080156159
IRIDIUM 173             
1 43925U 19002D   22004.90582114  .00000088  00000+0  24254-4 0  9999
2 43925  86.3974 312.3653 0002342  84.0330 276.1132 14.34214143156140
IRIDIUM 169             
1 43926U 19002E   22004.84666496  .00000105  00000+0  27940-4 0  9994
2 43926  86.4229 343.9912 0002962 306.6563  53.4362 14.38617897156690
IRIDIUM 172             
1 43927U 19002F   22004.89948767  .00000096  00000+0  27257-4 0  9994
2 43927  86.3974 312.3709 0002421  83.4990 276.6482 14.34217201156159
IRIDIUM 175             
1 43928U 19002G   22004.86047500  .00000249  00000+0  35635-4 0  9996
2 43928  86.6111 312.2580 0002803  88.1960 271.9578 14.72267472160252
IRIDIUM 171             
1 43929U 19002H   22004.88045281  .00000090  00000+0  25059-4 0  9996
2 43929  86.3984 312.5047 0002339  80.7519 279.3941 14.34218555156146
IRIDIUM 170             
1 43930U 19002J   22004.94085785  .00000242  00000+0  34493-4 0  9999
2 43930  86.6109 312.4046 0002558  83.9916 276.1593 14.72267282160288
IRIDIUM 167             
1 43931U 19002K   22004.87411320  .00000095  00000+0  26718-4 0  9997
2 43931  86.3975 312.3895 0002745  82.0553 278.0954 14.34215172156144
